[
    {
        "Altitude(m)": 570687.9017842768,
        "Argument of Periapsis(deg)": 0.0,
        "Eccentricity": 0.0,
        "Inclination(deg)": 97.0,
        "Latitude(deg)": -18.702680510425083,
        "Longitude(deg)": 52.400017028922186,
        "Mean Anomaly(deg)": -18.620699999999957,
        "RAAN(deg)": 150.0,
        "Satellite Name": "Starlink Shell 3 1929",
        "Satellite Number": 1929,
        "Semi-Major Axis(m)": 6938478.169268562,
        "Time(s)": 0
    },
    {
        "Altitude(m)": 570493.1591805081,
        "Argument of Periapsis(deg)": -0.0003965466804030246,
        "Eccentricity": 0.0,
        "Inclination(deg)": 97.0,
        "Latitude(deg)": -18.080015780628653,
        "Longitude(deg)": 52.273826982403705,
        "Mean Anomaly(deg)": -17.99522380229496,
        "RAAN(deg)": 150.00010433427403,
        "Satellite Name": "Starlink Shell 3 1929",
        "Satellite Number": 1929,
        "Semi-Major Axis(m)": 6938478.169268562,
        "Time(s)": 10
    },
    {
        "Altitude(m)": 570301.588017891,
        "Argument of Periapsis(deg)": -0.0007930933608060492,
        "Eccentricity": 0.0,
        "Inclination(deg)": 97.0,
        "Latitude(deg)": -17.457249720346464,
        "Longitude(deg)": 52.14822586877015,
        "Mean Anomaly(deg)": -17.36974760458984,
        "RAAN(deg)": 150.00020866854803,
        "Satellite Name": "Starlink Shell 3 1929",
        "Satellite Number": 1929,
        "Semi-Major Axis(m)": 6938478.169268562,
        "Time(s)": 20
    },
    {
        "Altitude(m)": 570113.2528357097,
        "Argument of Periapsis(deg)": -0.001189640041209074,
        "Eccentricity": 0.0,
        "Inclination(deg)": 97.0,
        "Latitude(deg)": -16.834385366886625,
        "Longitude(deg)": 52.023187987145945,
        "Mean Anomaly(deg)": -16.74427140688484,
        "RAAN(deg)": 150.00031300282205,
        "Satellite Name": "Starlink Shell 3 1929",
        "Satellite Number": 1929,
        "Semi-Major Axis(m)": 6938478.169268562,
        "Time(s)": 30
    },
    {
        "Altitude(m)": 569928.2165365748,
        "Argument of Periapsis(deg)": -0.0015861867216120985,
        "Eccentricity": 0.0,
        "Inclination(deg)": 97.0,
        "Latitude(deg)": -16.21142574737193,
        "Longitude(deg)": 51.89868873867327,
        "Mean Anomaly(deg)": -16.118795209179822,
        "RAAN(deg)": 150.00041733709605,
        "Satellite Name": "Starlink Shell 3 1929",
        "Satellite Number": 1929,
        "Semi-Major Axis(m)": 6938478.169268562,
        "Time(s)": 40
    },
    {
        "Altitude(m)": 569746.5403581095,
        "Argument of Periapsis(deg)": -0.0019827334020151234,
        "Eccentricity": 0.0,
        "Inclination(deg)": 97.0,
        "Latitude(deg)": -15.588373879960919,
        "Longitude(deg)": 51.77470358619069,
        "Mean Anomaly(deg)": -15.493319011474725,
        "RAAN(deg)": 150.00052167137008,
        "Satellite Name": "Starlink Shell 3 1929",
        "Satellite Number": 1929,
        "Semi-Major Axis(m)": 6938478.169268562,
        "Time(s)": 50
    },
    {
        "Altitude(m)": 569568.2838454129,
        "Argument of Periapsis(deg)": -0.002379280082418148,
        "Eccentricity": 0.0,
        "Inclination(deg)": 97.0,
        "Latitude(deg)": -14.965232774971916,
        "Longitude(deg)": 51.65120852808368,
        "Mean Anomaly(deg)": -14.867842813769707,
        "RAAN(deg)": 150.00062600564405,
        "Satellite Name": "Starlink Shell 3 1929",
        "Satellite Number": 1929,
        "Semi-Major Axis(m)": 6938478.169268562,
        "Time(s)": 60
    },
    {
        "Altitude(m)": 569393.5048243818,
        "Argument of Periapsis(deg)": -0.002775826762821173,
        "Eccentricity": 0.0,
        "Inclination(deg)": 97.0,
        "Latitude(deg)": -14.342005435917654,
        "Longitude(deg)": 51.52818057335261,
        "Mean Anomaly(deg)": -14.242366616064686,
        "RAAN(deg)": 150.00073033991808,
        "Satellite Name": "Starlink Shell 3 1929",
        "Satellite Number": 1929,
        "Semi-Major Axis(m)": 6938478.169268562,
        "Time(s)": 70
    },
    {
        "Altitude(m)": 569222.2593758923,
        "Argument of Periapsis(deg)": -0.003172373443224197,
        "Eccentricity": 0.0,
        "Inclination(deg)": 97.0,
        "Latitude(deg)": -13.718694860458514,
        "Longitude(deg)": 51.40559670494541,
        "Mean Anomaly(deg)": -13.61689041835969,
        "RAAN(deg)": 150.00083467419208,
        "Satellite Name": "Starlink Shell 3 1929",
        "Satellite Number": 1929,
        "Semi-Major Axis(m)": 6938478.169268562,
        "Time(s)": 80
    },
    {
        "Altitude(m)": 569054.6018107949,
        "Argument of Periapsis(deg)": -0.0035689201236272223,
        "Eccentricity": 0.0,
        "Inclination(deg)": 97.0,
        "Latitude(deg)": -13.095304041274998,
        "Longitude(deg)": 51.283434357026394,
        "Mean Anomaly(deg)": -12.991414220654594,
        "RAAN(deg)": 150.00093900846608,
        "Satellite Name": "Starlink Shell 3 1929",
        "Satellite Number": 1929,
        "Semi-Major Axis(m)": 6938478.169268562,
        "Time(s)": 90
    },
    {
        "Altitude(m)": 568890.5846458602,
        "Argument of Periapsis(deg)": -0.003965466804030247,
        "Eccentricity": 0.0,
        "Inclination(deg)": 97.0,
        "Latitude(deg)": -12.471835966866516,
        "Longitude(deg)": 51.16167189323943,
        "Mean Anomaly(deg)": -12.36593802294947,
        "RAAN(deg)": 150.0010433427401,
        "Satellite Name": "Starlink Shell 3 1929",
        "Satellite Number": 1929,
        "Semi-Major Axis(m)": 6938478.169268562,
        "Time(s)": 100
    },
    {
        "Altitude(m)": 568730.2585805482,
        "Argument of Periapsis(deg)": -0.004362013484433271,
        "Eccentricity": 0.0,
        "Inclination(deg)": 97.0,
        "Latitude(deg)": -11.848293622282391,
        "Longitude(deg)": 51.0402875730243,
        "Mean Anomaly(deg)": -11.740461825244477,
        "RAAN(deg)": 150.0011476770141,
        "Satellite Name": "Starlink Shell 3 1929",
        "Satellite Number": 1929,
        "Semi-Major Axis(m)": 6938478.169268562,
        "Time(s)": 110
    },
    {
        "Altitude(m)": 568573.6724747283,
        "Argument of Periapsis(deg)": -0.004758560164836296,
        "Eccentricity": 0.0,
        "Inclination(deg)": 97.0,
        "Latitude(deg)": -11.224679989785809,
        "Longitude(deg)": 50.91926003167107,
        "Mean Anomaly(deg)": -11.114985627539456,
        "RAAN(deg)": 150.0012520112881,
        "Satellite Name": "Starlink Shell 3 1929",
        "Satellite Number": 1929,
        "Semi-Major Axis(m)": 6938478.169268562,
        "Time(s)": 120
    },
    {
        "Altitude(m)": 568420.8733272959,
        "Argument of Periapsis(deg)": -0.005155106845239321,
        "Eccentricity": 0.0,
        "Inclination(deg)": 97.0,
        "Latitude(deg)": -10.600998049457454,
        "Longitude(deg)": 50.798568761179006,
        "Mean Anomaly(deg)": -10.489509429834461,
        "RAAN(deg)": 150.00135634556213,
        "Satellite Name": "Starlink Shell 3 1929",
        "Satellite Number": 1929,
        "Semi-Major Axis(m)": 6938478.169268562,
        "Time(s)": 130
    },
    {
        "Altitude(m)": 568271.9062557085,
        "Argument of Periapsis(deg)": -0.005551653525642346,
        "Eccentricity": 0.0,
        "Inclination(deg)": 97.0,
        "Latitude(deg)": -9.977250779743803,
        "Longitude(deg)": 50.67819307899063,
        "Mean Anomaly(deg)": -9.864033232129467,
        "RAAN(deg)": 150.00146067983613,
        "Satellite Name": "Starlink Shell 3 1929",
        "Satellite Number": 1929,
        "Semi-Major Axis(m)": 6938478.169268562,
        "Time(s)": 140
    },
    {
        "Altitude(m)": 568126.8144765128,
        "Argument of Periapsis(deg)": -0.005948200206045371,
        "Eccentricity": 0.0,
        "Inclination(deg)": 97.0,
        "Latitude(deg)": -9.353441157950346,
        "Longitude(deg)": 50.55811261029341,
        "Mean Anomaly(deg)": -9.238557034424344,
        "RAAN(deg)": 150.00156501411016,
        "Satellite Name": "Starlink Shell 3 1929",
        "Satellite Number": 1929,
        "Semi-Major Axis(m)": 6938478.169268562,
        "Time(s)": 150
    },
    {
        "Altitude(m)": 567985.6392867697,
        "Argument of Periapsis(deg)": -0.006344746886448394,
        "Eccentricity": 0.0,
        "Inclination(deg)": 97.0,
        "Latitude(deg)": -8.729572160685823,
        "Longitude(deg)": 50.43830777096433,
        "Mean Anomaly(deg)": -8.613080836719247,
        "RAAN(deg)": 150.00166934838416,
        "Satellite Name": "Starlink Shell 3 1929",
        "Satellite Number": 1929,
        "Semi-Major Axis(m)": 6938478.169268562,
        "Time(s)": 160
    },
    {
        "Altitude(m)": 567848.4200464694,
        "Argument of Periapsis(deg)": -0.00674129356685142,
        "Eccentricity": 0.0,
        "Inclination(deg)": 97.0,
        "Latitude(deg)": -8.105646764261936,
        "Longitude(deg)": 50.318758738235864,
        "Mean Anomaly(deg)": -7.987604639014251,
        "RAAN(deg)": 150.00177368265818,
        "Satellite Name": "Starlink Shell 3 1929",
        "Satellite Number": 1929,
        "Semi-Major Axis(m)": 6938478.169268562,
        "Time(s)": 170
    },
    {
        "Altitude(m)": 567715.1941619302,
        "Argument of Periapsis(deg)": -0.007137840247254445,
        "Eccentricity": 0.0,
        "Inclination(deg)": 97.0,
        "Latitude(deg)": -7.481667945048634,
        "Longitude(deg)": 50.199445934781764,
        "Mean Anomaly(deg)": -7.362128441309205,
        "RAAN(deg)": 150.00187801693215,
        "Satellite Name": "Starlink Shell 3 1929",
        "Satellite Number": 1929,
        "Semi-Major Axis(m)": 6938478.169268562,
        "Time(s)": 180
    }
]